NORAD_CAT_ID,OBJECT_NAME,OBJECT_TYPE,EPOCH,MEAN_MOTION,ECCENTRICITY,INCLINATION,RA_OF_ASC_NODE,ARG_OF_PERICENTER,MEAN_ANOMALY,BSTAR,MEAN_MOTION_DOT,MEAN_MOTION_DDOT,TLE_LINE0,TLE_LINE1,TLE_LINE2,SEMIMAJOR_AXIS,PERIOD,APOGEE,PERIGEE,DECAYED
53632.0,STARLINK-4606,PAYLOAD,2023-09-09 13:14:22,15.08835696,0.0001329,53.2185,358.8526,69.5906,290.5229,2.1792e-05,5.9e-07,0.0,0 STARLINK-4606,1 53632U 22104AW  23252.55164514  .00000059  00000-0  21792-4 0  9992,2 53632  53.2185 358.8526 0001329  69.5906 290.5229 15.08835696 58522,6917.894,95.438,540.678,538.839,0.0
53632.0,STARLINK-4606,PAYLOAD,2023-09-09 16:25:07,15.08843341,0.0001345,53.2185,358.2561,89.9674,270.1472,9.1699e-05,1.172e-05,0.0,0 STARLINK-4606,1 53632U 22104AW  23252.68411827  .00001172  00000-0  91699-4 0  9998,2 53632  53.2185 358.2561 0001345  89.9674 270.1472 15.08843341 57520,6917.87,95.437,540.666,538.805,0.0
53632.0,STARLINK-4606,PAYLOAD,2023-09-10 06:43:36,15.08837995,0.0001331,53.2185,355.5798,85.6036,274.5108,0.00011172,1.49e-05,0.0,0 STARLINK-4606,1 53632U 22104AW  23253.28028183  .00001490  00000-0  11172-3 0  9994,2 53632  53.2185 355.5798 0001331  85.6036 274.5108 15.08837995 57614,6917.887,95.438,540.672,538.831,0.0
53632.0,STARLINK-4606,PAYLOAD,2023-09-10 13:05:08,15.08848263,0.0001191,53.2181,354.3918,85.0491,275.0637,9.7084e-05,1.258e-05,0.0,0 STARLINK-4606,1 53632U 22104AW  23253.54523580  .00001258  00000-0  97084-4 0  9993,2 53632  53.2181 354.3918 0001191  85.0491 275.0637 15.08848263 58674,6917.855,95.437,540.544,538.896,0.0
53632.0,STARLINK-4606,PAYLOAD,2023-09-11 12:55:55,15.0884473,0.0001287,53.2185,349.9305,94.8724,265.2415,6.7029e-05,7.79e-06,0.0,0 STARLINK-4606,1 53632U 22104AW  23254.53883901  .00000779  00000-0  67029-4 0  9992,2 53632  53.2185 349.9305 0001287  94.8724 265.2415 15.08844730 58828,6917.866,95.437,540.621,538.841,0.0
53632.0,STARLINK-4606,PAYLOAD,2023-09-12 12:46:41,15.08854608,0.0001397,53.2187,345.4708,101.9943,258.1206,7.4919e-05,9.05e-06,0.0,0 STARLINK-4606,1 53632U 22104AW  23255.53242981  .00000905  00000-0  74919-4 0  9997,2 53632  53.2187 345.4708 0001397 101.9943 258.1206 15.08854608 58973,6917.836,95.437,540.667,538.734,0.0
53632.0,STARLINK-4606,PAYLOAD,2023-09-13 09:26:42,15.08845657,0.000127,53.2189,341.6058,93.066,267.0477,8.1072e-05,1.003e-05,0.0,0 STARLINK-4606,1 53632U 22104AW  23256.39355312  .00001003  00000-0  81072-4 0  9993,2 53632  53.2189 341.6058 0001270  93.0660 267.0477 15.08845657 58083,6917.863,95.437,540.607,538.85,0.0
53632.0,STARLINK-4606,PAYLOAD,2023-09-13 12:37:28,15.08848983,0.0001416,53.2195,341.0109,100.0924,260.0228,9.139e-05,1.167e-05,0.0,0 STARLINK-4606,1 53632U 22104AW  23256.52602985  .00001167  00000-0  91390-4 0  9994,2 53632  53.2195 341.0109 0001416 100.0924 260.0228 15.08848983 59123,6917.853,95.437,540.697,538.738,0.0
53632.0,STARLINK-4606,PAYLOAD,2023-09-13 17:23:37,15.08858347,0.0001338,53.2186,340.1179,99.9328,260.1815,0.00017839,2.554e-05,0.0,0 STARLINK-4606,1 53632U 22104AW  23256.72474038  .00002554  00000-0  17839-3 0  9998,2 53632  53.2186 340.1179 0001338  99.9328 260.1815 15.08858347 58135,6917.824,95.436,540.615,538.764,0.0
53632.0,STARLINK-4606,PAYLOAD,2023-09-13 22:09:50,15.08818599,0.0002159,53.2186,339.226,81.8135,278.3101,-0.00013709,-2.468e-05,0.0,0 STARLINK-4606,1 53632U 22104AW  23256.92349693 -.00002468  00000-0 -13709-3 0  9996,2 53632  53.2186 339.2260 0002159  81.8135 278.3101 15.08818599 58160,6917.946,95.439,541.304,538.317,0.0
53632.0,STARLINK-4606,PAYLOAD,2023-09-14 10:52:55,15.08815912,0.0001588,53.2196,336.8493,85.7687,274.3487,-0.00020387,-3.529e-05,0.0,0 STARLINK-4606,1 53632U 22104AW  23257.45342442 -.00003529  00000-0 -20387-3 0  9999,2 53632  53.2196 336.8493 0001588  85.7687 274.3487 15.08815912 59263,6917.954,95.439,540.918,538.72,0.0
53632.0,STARLINK-4606,PAYLOAD,2023-09-15 10:43:42,15.08836911,0.000147,53.2188,332.3872,88.5461,271.57,-2.9507e-05,-7.57e-06,0.0,0 STARLINK-4606,1 53632U 22104AW  23258.44701495 -.00000757  00000-0 -29507-4 0  9990,2 53632  53.2188 332.3872 0001470  88.5461 271.5700 15.08836911 58399,6917.89,95.438,540.772,538.738,0.0
53632.0,STARLINK-4606,PAYLOAD,2023-09-15 21:51:23,15.08845433,0.000164,53.2199,330.3078,112.1742,247.9424,1.9149e-05,1.7e-07,0.0,0 STARLINK-4606,1 53632U 22104AW  23258.91068826  .00000017  00000-0  19149-4 0  9994,2 53632  53.2199 330.3078 0001640 112.1742 247.9424 15.08845433 58469,6917.864,95.437,540.863,538.594,0.0
53632.0,STARLINK-4606,PAYLOAD,2023-09-16 12:09:52,15.0884962,0.0001479,53.2178,327.6301,74.9653,285.1503,0.00053674,8.267e-05,0.0,0 STARLINK-4606,1 53632U 22104AW  23259.50685312  .00008267  00000-0  53674-3 0  9990,2 53632  53.2178 327.6301 0001479  74.9653 285.1503 15.08849620 59577,6917.851,95.437,540.739,538.693,0.0
53632.0,STARLINK-4606,PAYLOAD,2023-09-17 10:25:15,15.08850666,0.0001611,53.2182,323.4684,76.936,283.1812,0.00012075,1.635e-05,0.0,0 STARLINK-4606,1 53632U 22104AW  23260.43420925  .00001635  00000-0  12075-3 0  9993,2 53632  53.2182 323.4684 0001611  76.9360 283.1812 15.08850666 58690,6917.848,95.437,540.827,538.598,0.0
53632.0,STARLINK-4606,PAYLOAD,2023-09-17 12:00:38,15.08854164,0.0001596,53.2177,323.1703,75.781,284.3359,0.00018818,2.709e-05,0.0,0 STARLINK-4606,1 53632U 22104AW  23260.50044819  .00002709  00000-0  18818-3 0  9999,2 53632  53.2177 323.1703 0001596  75.7810 284.3359 15.08854164 59723,6917.837,95.437,540.806,538.598,0.0
53632.0,STARLINK-4606,PAYLOAD,2023-09-18 10:16:02,15.0885108,0.0001677,53.2179,319.0074,75.6047,284.5131,5.0181e-05,5.11e-06,0.0,0 STARLINK-4606,1 53632U 22104AW  23261.42780542  .00000511  00000-0  50181-4 0  9990,2 53632  53.2179 319.0074 0001677  75.6047 284.5131 15.08851080 59860,6917.847,95.437,540.872,538.551,0.0
53632.0,STARLINK-4606,PAYLOAD,2023-09-20 09:57:37,15.0883047,0.000148,53.2164,310.0851,80.8098,279.3061,-6.6284e-05,-1.342e-05,0.0,0 STARLINK-4606,1 53632U 22104AW  23263.41501328 -.00001342  00000-0 -66284-4 0  9990,2 53632  53.2164 310.0851 0001480  80.8098 279.3061 15.08830470 59149,6917.91,95.438,540.798,538.751,0.0
53632.0,STARLINK-4606,PAYLOAD,2023-09-21 09:48:24,15.08842637,0.0001521,53.2161,305.6245,74.4314,285.6846,5.3947e-05,5.71e-06,0.0,0 STARLINK-4606,1 53632U 22104AW  23264.40861207  .00000571  00000-0  53947-4 0  9998,2 53632  53.2161 305.6245 0001521  74.4314 285.6846 15.08842637 59294,6917.872,95.437,540.79,538.685,0.0
53632.0,STARLINK-4606,PAYLOAD,2023-09-21 19:20:42,15.0884391,0.000156,53.2165,303.8407,75.8209,284.2956,6.6985e-05,7.78e-06,0.0,0 STARLINK-4606,1 53632U 22104AW  23264.80605182  .00000778  00000-0  66985-4 0  9995,2 53632  53.2165 303.8407 0001560  75.8209 284.2956 15.08843910 60372,6917.868,95.437,540.813,538.654,0.0
53632.0,STARLINK-4606,PAYLOAD,2023-09-22 01:42:15,15.0883742,0.0001608,53.2166,302.6516,75.7485,284.3686,0.00027171,4.039e-05,0.0,0 STARLINK-4606,1 53632U 22104AW  23265.07101704  .00004039  00000-0  27171-3 0  9993,2 53632  53.2166 302.6516 0001608  75.7485 284.3686 15.08837420 59399,6917.888,95.438,540.866,538.641,0.0
53632.0,STARLINK-4606,PAYLOAD,2023-09-22 08:03:48,15.08844344,0.000162,53.2165,301.462,76.1819,283.9353,0.00035678,5.395e-05,0.0,0 STARLINK-4606,1 53632U 22104AW  23265.33597536  .00005395  00000-0  35678-3 0  9991,2 53632  53.2165 301.4620 0001620  76.1819 283.9353 15.08844344 60459,6917.867,95.437,540.853,538.611,0.0
53632.0,STARLINK-4606,PAYLOAD,2023-09-22 19:11:30,15.08845923,0.000165,53.2166,299.38,84.216,275.902,0.00019647,2.841e-05,0.0,0 STARLINK-4606,1 53632U 22104AW  23265.79965323  .00002841  00000-0  19647-3 0  9995,2 53632  53.2166 299.3800 0001650  84.2160 275.9020 15.08845923 60521,6917.862,95.437,540.869,538.586,0.0
53632.0,STARLINK-4606,PAYLOAD,2023-09-23 09:29:58,15.08844969,0.0001707,53.2172,296.7041,87.756,272.3628,8.6095e-05,1.083e-05,0.0,0 STARLINK-4606,1 53632U 22104AW  23266.39581269  .00001083  00000-0  86095-4 0  9994,2 53632  53.2172 296.7041 0001707  87.7560 272.3628 15.08844969 59590,6917.865,95.437,540.911,538.549,0.0
53632.0,STARLINK-4606,PAYLOAD,2023-09-24 02:59:12,15.08838908,0.0001697,53.2169,293.4325,85.6572,274.4614,-5.217e-05,-1.118e-05,0.0,0 STARLINK-4606,1 53632U 22104AW  23267.12445539 -.00001118  00000-0 -52170-4 0  9993,2 53632  53.2169 293.4325 0001697  85.6572 274.4614 15.08838908 59700,6917.884,95.438,540.923,538.575,0.0
53632.0,STARLINK-4606,PAYLOAD,2023-09-24 10:56:08,15.08844865,0.0001682,53.218,291.9458,86.5264,273.592,4.9194e-05,4.95e-06,0.0,0 STARLINK-4606,1 53632U 22104AW  23267.45565518  .00000495  00000-0  49194-4 0  9996,2 53632  53.2180 291.9458 0001682  86.5264 273.5920 15.08844865 60773,6917.866,95.437,540.894,538.567,0.0
53632.0,STARLINK-4606,PAYLOAD,2023-09-25 09:11:32,15.08847628,0.0001535,53.2158,287.7818,83.2353,276.8814,0.00017566,2.509e-05,0.0,0 STARLINK-4606,1 53632U 22104AW  23268.38301285  .00002509  00000-0  17566-3 0  9993,2 53632  53.2158 287.7818 0001535  83.2353 276.8814 15.08847628 59890,6917.857,95.437,540.784,538.66,0.0
53632.0,STARLINK-4606,PAYLOAD,2023-09-25 18:43:51,15.08847049,0.0001595,53.216,285.9979,83.2079,276.9095,0.0001908,2.75e-05,0.0,0 STARLINK-4606,1 53632U 22104AW  23268.78045326  .00002750  00000-0  19080-3 0  9999,2 53632  53.2160 285.9979 0001595  83.2079 276.9095 15.08847049 60972,6917.859,95.437,540.827,538.62,0.0
53632.0,STARLINK-4606,PAYLOAD,2023-09-25 23:30:00,15.08842011,0.0001552,53.2163,285.1063,88.9016,271.2154,0.00018259,2.619e-05,0.0,0 STARLINK-4606,1 53632U 22104AW  23268.97917534  .00002619  00000-0  18259-3 0  9990,2 53632  53.2163 285.1063 0001552  88.9016 271.2154 15.08842011 59984,6917.874,95.437,540.813,538.666,0.0
53632.0,STARLINK-4606,PAYLOAD,2023-09-26 07:26:55,15.0885107,0.0001559,53.2161,283.619,91.5774,268.5397,0.00023113,3.393e-05,0.0,0 STARLINK-4606,1 53632U 22104AW  23269.31037022  .00003393  00000-0  23113-3 0  9999,2 53632  53.2161 283.6190 0001559  91.5774 268.5397 15.08851070 61058,6917.847,95.437,540.79,538.633,0.0
